{
  "type": "FeatureCollection",
  "features": [
    {
      "type": "Feature",
      "properties": {
        "norad_id": 29807,
        "name": "FENGYUN 1C DEB",
        "group": "fengyun-1c-debris",
        "lat": 80.63015576023345,
        "lon": -106.00969800757301,
        "alt_km": 910.6637465237891,
        "timestamp": "2025-12-26T17:24:54.990931+00:00",
        "meta_object_name": "FENGYUN 1C DEB",
        "meta_object_id": "1999-025CZ",
        "meta_epoch": "2025-12-26T06:44:35.661984",
        "meta_mean_motion": 14.08670282,
        "meta_eccentricity": 0.00790623,
        "meta_inclination": 98.7549,
        "meta_ra_of_asc_node": 4.5092,
        "meta_arg_of_pericenter": 293.3437,
        "meta_mean_anomaly": 65.9429,
        "meta_ephemeris_type": 0,
        "meta_classification_type": "U",
        "meta_norad_cat_id": 29807,
        "meta_element_set_no": 999,
        "meta_rev_at_epoch": 97285,
        "meta_bstar": 0.0002365976,
        "meta_mean_motion_dot": 3.76e-06,
        "meta_mean_motion_ddot": 0,
        "tle_line1": "1 29807U 99025CZ  25360.28096831  .00000376  00000+0  23660-3 0  9999",
        "tle_line2": "2 29807  98.7549   4.5092 0079062 293.3437  65.9429 14.08670282972859"
      },
      "geometry": {
        "type": "Point",
        "coordinates": [
          -106.00969800757301,
          80.63015576023345
        ]
      }
    },
    {
      "type": "Feature",
      "properties": {
        "norad_id": 29808,
        "name": "FENGYUN 1C DEB",
        "group": "fengyun-1c-debris",
        "lat": 0.3487720926067521,
        "lon": -78.11297885813255,
        "alt_km": 470.314910550419,
        "timestamp": "2025-12-26T17:24:54.990941+00:00",
        "meta_object_name": "FENGYUN 1C DEB",
        "meta_object_id": "1999-025DA",
        "meta_epoch": "2025-12-25T18:07:04.903968",
        "meta_mean_motion": 15.30813576,
        "meta_eccentricity": 0.00199044,
        "meta_inclination": 99.0116,
        "meta_ra_of_asc_node": 280.7643,
        "meta_arg_of_pericenter": 79.9805,
        "meta_mean_anomaly": 332.8348,
        "meta_ephemeris_type": 0,
        "meta_classification_type": "U",
        "meta_norad_cat_id": 29808,
        "meta_element_set_no": 999,
        "meta_rev_at_epoch": 98424,
        "meta_bstar": 0.015828087,
        "meta_mean_motion_dot": 0.00505938,
        "meta_mean_motion_ddot": 0,
        "tle_line1": "1 29808U 99025DA  25359.75491787  .00505938  00000+0  15828-1 0  9998",
        "tle_line2": "2 29808  99.0116 280.7643 0019904  79.9805 332.8348 15.30813576984243"
      },
      "geometry": {
        "type": "Point",
        "coordinates": [
          -78.11297885813255,
          0.3487720926067521
        ]
      }
    },
    {
      "type": "Feature",
      "properties": {
        "norad_id": 29809,
        "name": "FENGYUN 1C DEB",
        "group": "fengyun-1c-debris",
        "lat": -42.22489574834286,
        "lon": 136.7654132597759,
        "alt_km": 735.4758926575641,
        "timestamp": "2025-12-26T17:24:54.990951+00:00",
        "meta_object_name": "FENGYUN 1C DEB",
        "meta_object_id": "1999-025DB",
        "meta_epoch": "2025-12-25T11:05:31.130304",
        "meta_mean_motion": 14.46625727,
        "meta_eccentricity": 0.01154,
        "meta_inclination": 98.862,
        "meta_ra_of_asc_node": 323.5842,
        "meta_arg_of_pericenter": 311.7657,
        "meta_mean_anomaly": 176.1226,
        "meta_ephemeris_type": 0,
        "meta_classification_type": "U",
        "meta_norad_cat_id": 29809,
        "meta_element_set_no": 999,
        "meta_rev_at_epoch": 99651,
        "meta_bstar": 0.00034982,
        "meta_mean_motion_dot": 1.317e-05,
        "meta_mean_motion_ddot": 0,
        "tle_line1": "1 29809U 99025DB  25359.46216586  .00001317  00000+0  34982-3 0  9995",
        "tle_line2": "2 29809  98.8620 323.5842 0115400 311.7657 176.1226 14.46625727996510"
      },
      "geometry": {
        "type": "Point",
        "coordinates": [
          136.7654132597759,
          -42.22489574834286
        ]
      }
    },
    {
      "type": "Feature",
      "properties": {
        "norad_id": 29810,
        "name": "FENGYUN 1C DEB",
        "group": "fengyun-1c-debris",
        "lat": 80.78789502853724,
        "lon": -52.564233634509364,
        "alt_km": 804.2888972219671,
        "timestamp": "2025-12-26T17:24:54.990960+00:00",
        "meta_object_name": "FENGYUN 1C DEB",
        "meta_object_id": "1999-025DC",
        "meta_epoch": "2025-12-26T02:07:37.021152",
        "meta_mean_motion": 14.29147764,
        "meta_eccentricity": 0.00663261,
        "meta_inclination": 99.2052,
        "meta_ra_of_asc_node": 37.653,
        "meta_arg_of_pericenter": 340.4676,
        "meta_mean_anomaly": 73.4088,
        "meta_ephemeris_type": 0,
        "meta_classification_type": "U",
        "meta_norad_cat_id": 29810,
        "meta_element_set_no": 999,
        "meta_rev_at_epoch": 98568,
        "meta_bstar": 0.00024707362,
        "meta_mean_motion_dot": 5.92e-06,
        "meta_mean_motion_ddot": 0,
        "tle_line1": "1 29810U 99025DC  25360.08862293  .00000592  00000+0  24707-3 0  9997",
        "tle_line2": "2 29810  99.2052  37.6530 0066326 340.4676  73.4088 14.29147764985687"
      },
      "geometry": {
        "type": "Point",
        "coordinates": [
          -52.564233634509364,
          80.78789502853724
        ]
      }
    },
    {
      "type": "Feature",
      "properties": {
        "norad_id": 29812,
        "name": "FENGYUN 1C DEB",
        "group": "fengyun-1c-debris",
        "lat": 43.41967546588518,
        "lon": -179.58607211843741,
        "alt_km": 927.0886388804147,
        "timestamp": "2025-12-26T17:24:54.990971+00:00",
        "meta_object_name": "FENGYUN 1C DEB",
        "meta_object_id": "1999-025DE",
        "meta_epoch": "2025-12-25T12:21:49.956192",
        "meta_mean_motion": 14.02030544,
        "meta_eccentricity": 0.0143663,
        "meta_inclination": 98.3499,
        "meta_ra_of_asc_node": 187.2934,
        "meta_arg_of_pericenter": 291.8261,
        "meta_mean_anomaly": 124.5352,
        "meta_ephemeris_type": 0,
        "meta_classification_type": "U",
        "meta_norad_cat_id": 29812,
        "meta_element_set_no": 999,
        "meta_rev_at_epoch": 96351,
        "meta_bstar": 0.0010333,
        "meta_mean_motion_dot": 1.686e-05,
        "meta_mean_motion_ddot": 0,
        "tle_line1": "1 29812U 99025DE  25359.51516153  .00001686  00000+0  10333-2 0  9990",
        "tle_line2": "2 29812  98.3499 187.2934 0143663 291.8261 124.5352 14.02030544963511"
      },
      "geometry": {
        "type": "Point",
        "coordinates": [
          -179.58607211843741,
          43.41967546588518
        ]
      }
    },
    {
      "type": "Feature",
      "properties": {
        "norad_id": 29813,
        "name": "FENGYUN 1C DEB",
        "group": "fengyun-1c-debris",
        "lat": 46.0909977955277,
        "lon": 10.971404318455225,
        "alt_km": 863.4855090263891,
        "timestamp": "2025-12-26T17:24:54.990981+00:00",
        "meta_object_name": "FENGYUN 1C DEB",
        "meta_object_id": "1999-025DF",
        "meta_epoch": "2025-12-26T00:17:51.056736",
        "meta_mean_motion": 14.09454489,
        "meta_eccentricity": 0.00124169,
        "meta_inclination": 98.7267,
        "meta_ra_of_asc_node": 19.4616,
        "meta_arg_of_pericenter": 183.5427,
        "meta_mean_anomaly": 206.4386,
        "meta_ephemeris_type": 0,
        "meta_classification_type": "U",
        "meta_norad_cat_id": 29813,
        "meta_element_set_no": 999,
        "meta_rev_at_epoch": 97447,
        "meta_bstar": 6.5791019e-05,
        "meta_mean_motion_dot": 7.2e-07,
        "meta_mean_motion_ddot": 0,
        "tle_line1": "1 29813U 99025DF  25360.01239649  .00000072  00000+0  65791-4 0  9998",
        "tle_line2": "2 29813  98.7267  19.4616 0012416 183.5427 206.4386 14.09454489974473"
      },
      "geometry": {
        "type": "Point",
        "coordinates": [
          10.971404318455225,
          46.0909977955277
        ]
      }
    },
    {
      "type": "Feature",
      "properties": {
        "norad_id": 29815,
        "name": "FENGYUN 1C DEB",
        "group": "fengyun-1c-debris",
        "lat": -54.28147032045727,
        "lon": 177.57384721157837,
        "alt_km": 791.7708037083466,
        "timestamp": "2025-12-26T17:24:54.990991+00:00",
        "meta_object_name": "FENGYUN 1C DEB",
        "meta_object_id": "1999-025DH",
        "meta_epoch": "2025-12-25T23:57:17.088480",
        "meta_mean_motion": 14.63797758,
        "meta_eccentricity": 0.01841574,
        "meta_inclination": 98.0553,
        "meta_ra_of_asc_node": 8.2209,
        "meta_arg_of_pericenter": 93.6771,
        "meta_mean_anomaly": 268.5511,
        "meta_ephemeris_type": 0,
        "meta_classification_type": "U",
        "meta_norad_cat_id": 29815,
        "meta_element_set_no": 999,
        "meta_rev_at_epoch": 45,
        "meta_bstar": 0.00053555898,
        "meta_mean_motion_dot": 3.524e-05,
        "meta_mean_motion_ddot": 0,
        "tle_line1": "1 29815U 99025DH  25359.99811445  .00003524  00000+0  53556-3 0  9995",
        "tle_line2": "2 29815  98.0553   8.2209 0184157  93.6771 268.5511 14.63797758   451"
      },
      "geometry": {
        "type": "Point",
        "coordinates": [
          177.57384721157837,
          -54.28147032045727
        ]
      }
    }
  ]
}